EARTHCARE               
1 59908U 24101A   24171.92689866  .00011822  00000+0  18341-3 0  9991
2 59908  96.9802 299.6393 0005373  99.0222 261.1641 15.54116055  3412
